{"type": "FeatureCollection", "features": [ {"type": "Feature", "properties": {"norad_id": 66664, "name": "SOYUZ-MS 28", "group": "last-30-days", "lat": 2.3343100676243846, "lon": -20.34332984124545, "alt_km": 417.1968461721417, "timestamp": "2025-12-08T21:31:03.448781+00:00", "meta": {"OBJECT_NAME": "SOYUZ-MS 28", "OBJECT_ID": "2025-275A", "EPOCH": "2025-12-08T13:01:02.621280", "MEAN_MOTION": 15.49420853, "ECCENTRICITY": 0.00033936, "INCLINATION": 51.6307, "RA_OF_ASC_NODE": 163.2617, "ARG_OF_PERICENTER": 220.7658, "MEAN_ANOMALY": 139.3077, "EPHEMERIS_TYPE": 0, "CLASSIFICATION_TYPE": "U", "NORAD_CAT_ID": 66664, "ELEMENT_SET_NO": 999, "REV_AT_EPOCH": 128, "BSTAR": 0.00023027995, "MEAN_MOTION_DOT": 0.00012445, "MEAN_MOTION_DDOT": 0}, "tle": {"line1": "1 66664U 25275A   25342.54239145  .00012445  00000+0  23028-3 0  9991", "line2": "2 66664  51.6307 163.2617 0003393 220.7658 139.3077 15.49420853  1288"}}, "geometry": {"type": "Point", "coordinates": [-20.34332984124545, 2.3343100676243846]}}, {"type": "Feature", "properties": {"norad_id": 66820, "name": "KOMPSAT-7", "group": "last-30-days", "lat": 36.12784881521554, "lon": 114.46364903097012, "alt_km": 569.6011493418309, "timestamp": "2025-12-08T21:31:03.448792+00:00", "meta": {"OBJECT_NAME": "KOMPSAT-7", "OBJECT_ID": "2025-279A", "EPOCH": "2025-12-08T14:28:04.424736", "MEAN_MOTION": 14.98369604, "ECCENTRICITY": 0.0009431, "INCLINATION": 97.64, "RA_OF_ASC_NODE": 288.553, "ARG_OF_PERICENTER": 235.5976, "MEAN_ANOMALY": 124.4356, "EPHEMERIS_TYPE": 0, "CLASSIFICATION_TYPE": "U", "NORAD_CAT_ID": 66820, "ELEMENT_SET_NO": 999, "REV_AT_EPOCH": 103, "BSTAR": 0.00038346512, "MEAN_MOTION_DOT": 4.517e-05, "MEAN_MOTION_DDOT": 0}, "tle": {"line1": "1 66820U 25279A   25342.60282899  .00004517  00000+0  38347-3 0  9991", "line2": "2 66820  97.6400 288.5530 0009431 235.5976 124.4356 14.98369604  1034"}}, "geometry": {"type": "Point", "coordinates": [114.46364903097012, 36.12784881521554]}}, {"type": "Feature", "properties": {"norad_id": 66877, "name": "ZQ-3 R/B", "group": "last-30-days", "lat": 0.49561598218108005, "lon": 72.60184356035563, "alt_km": 1205.7256203034194, "timestamp": "2025-12-08T21:31:03.448804+00:00", "meta": {"OBJECT_NAME": "ZQ-3 R/B", "OBJECT_ID": "2025-282A", "EPOCH": "2025-12-08T13:14:07.041696", "MEAN_MOTION": 14.48496817, "ECCENTRICITY": 0.0824928, "INCLINATION": 56.9535, "RA_OF_ASC_NODE": 73.5803, "ARG_OF_PERICENTER": 212.7601, "MEAN_ANOMALY": 141.961, "EPHEMERIS_TYPE": 0, "CLASSIFICATION_TYPE": "U", "NORAD_CAT_ID": 66877, "ELEMENT_SET_NO": 999, "REV_AT_EPOCH": 78, "BSTAR": 0.00024517545, "MEAN_MOTION_DOT": 0.01155966, "MEAN_MOTION_DDOT": 7.307421e-06}, "tle": {"line1": "1 66877U 25282A   25342.55147039  .01155966  73074-5  24518-3 0  9995", "line2": "2 66877  56.9535  73.5803 0824928 212.7601 141.9610 14.48496817   786"}}, "geometry": {"type": "Point", "coordinates": [72.60184356035563, 0.49561598218108005]}}, {"type": "Feature", "properties": {"norad_id": 66906, "name": "1998-067XS", "group": "last-30-days", "lat": -10.715877713259287, "lon": -9.903630260900952, "alt_km": 415.2188790351265, "timestamp": "2025-12-08T21:31:03.448816+00:00", "meta": {"OBJECT_NAME": "1998-067XS", "OBJECT_ID": "1998-067XS", "EPOCH": "2025-12-08T12:57:01.602432", "MEAN_MOTION": 15.50249516, "ECCENTRICITY": 0.000407, "INCLINATION": 51.6299, "RA_OF_ASC_NODE": 163.2435, "ARG_OF_PERICENTER": 183.7827, "MEAN_ANOMALY": 176.3132, "EPHEMERIS_TYPE": 0, "CLASSIFICATION_TYPE": "U", "NORAD_CAT_ID": 66906, "ELEMENT_SET_NO": 999, "REV_AT_EPOCH": 96, "BSTAR": 0.00052843815, "MEAN_MOTION_DOT": 0.0003009, "MEAN_MOTION_DDOT": 0}, "tle": {"line1": "1 66906U 98067XS  25342.53960188  .00030090  00000+0  52844-3 0  9990", "line2": "2 66906  51.6299 163.2435 0004070 183.7827 176.3132 15.50249516   968"}}, "geometry": {"type": "Point", "coordinates": [-9.903630260900952, -10.715877713259287]}}, {"type": "Feature", "properties": {"norad_id": 66907, "name": "1998-067XT", "group": "last-30-days", "lat": -15.126765110233519, "lon": -6.171165310287214, "alt_km": 413.58531932440746, "timestamp": "2025-12-08T21:31:03.448827+00:00", "meta": {"OBJECT_NAME": "1998-067XT", "OBJECT_ID": "1998-067XT", "EPOCH": "2025-12-08T12:55:42.371040", "MEAN_MOTION": 15.507285, "ECCENTRICITY": 0.00049427, "INCLINATION": 51.6299, "RA_OF_ASC_NODE": 163.2377, "ARG_OF_PERICENTER": 202.7949, "MEAN_ANOMALY": 157.2822, "EPHEMERIS_TYPE": 0, "CLASSIFICATION_TYPE": "U", "NORAD_CAT_ID": 66907, "ELEMENT_SET_NO": 999, "REV_AT_EPOCH": 96, "BSTAR": 0.00115984, "MEAN_MOTION_DOT": 0.00068077, "MEAN_MOTION_DDOT": 0}, "tle": {"line1": "1 66907U 98067XT  25342.53868485  .00068077  00000+0  11598-2 0  9994", "line2": "2 66907  51.6299 163.2377 0004942 202.7949 157.2822 15.50728500   968"}}, "geometry": {"type": "Point", "coordinates": [-6.171165310287214, -15.126765110233519]}}, {"type": "Feature", "properties": {"norad_id": 66908, "name": "1998-067XU", "group": "last-30-days", "lat": -15.92126837068828, "lon": -5.477962179441092, "alt_km": 413.41347111517007, "timestamp": "2025-12-08T21:31:03.448837+00:00", "meta": {"OBJECT_NAME": "1998-067XU", "OBJECT_ID": "1998-067XU", "EPOCH": "2025-12-08T14:28:14.784096", "MEAN_MOTION": 15.5077485, "ECCENTRICITY": 0.00051439, "INCLINATION": 51.6294, "RA_OF_ASC_NODE": 162.9167, "ARG_OF_PERICENTER": 202.1704, "MEAN_ANOMALY": 157.9063, "EPHEMERIS_TYPE": 0, "CLASSIFICATION_TYPE": "U", "NORAD_CAT_ID": 66908, "ELEMENT_SET_NO": 999, "REV_AT_EPOCH": 97, "BSTAR": 0.0010998986, "MEAN_MOTION_DOT": 0.00064615, "MEAN_MOTION_DDOT": 0}, "tle": {"line1": "1 66908U 98067XU  25342.60294889  .00064615  00000+0  10999-2 0  9992", "line2": "2 66908  51.6294 162.9167 0005143 202.1704 157.9063 15.50774850   978"}}, "geometry": {"type": "Point", "coordinates": [-5.477962179441092, -15.92126837068828]}}, {"type": "Feature", "properties": {"norad_id": 66909, "name": "SILVERSAT", "group": "last-30-days", "lat": -16.45719430691844, "lon": -5.00639167908313, "alt_km": 413.31398710729263, "timestamp": "2025-12-08T21:31:03.448847+00:00", "meta": {"OBJECT_NAME": "SILVERSAT", "OBJECT_ID": "1998-067XV", "EPOCH": "2025-12-08T12:55:17.890464", "MEAN_MOTION": 15.50849748, "ECCENTRICITY": 0.00049826, "INCLINATION": 51.6295, "RA_OF_ASC_NODE": 163.2358, "ARG_OF_PERICENTER": 203.4161, "MEAN_ANOMALY": 156.6602, "EPHEMERIS_TYPE": 0, "CLASSIFICATION_TYPE": "U", "NORAD_CAT_ID": 66909, "ELEMENT_SET_NO": 999, "REV_AT_EPOCH": 96, "BSTAR": 0.001262733, "MEAN_MOTION_DOT": 0.00074541, "MEAN_MOTION_DDOT": 0}, "tle": {"line1": "1 66909U 98067XV  25342.53840151  .00074541  00000+0  12627-2 0  9993", "line2": "2 66909  51.6295 163.2358 0004982 203.4161 156.6602 15.50849748   960"}}, "geometry": {"type": "Point", "coordinates": [-5.00639167908313, -16.45719430691844]}}, {"type": "Feature", "properties": {"norad_id": 66910, "name": "1998-067XW", "group": "last-30-days", "lat": -21.04063814490836, "lon": -0.8091566958062867, "alt_km": 412.70048291641433, "timestamp": "2025-12-08T21:31:03.448857+00:00", "meta": {"OBJECT_NAME": "1998-067XW", "OBJECT_ID": "1998-067XW", "EPOCH": "2025-12-08T12:53:48.654816", "MEAN_MOTION": 15.51059789, "ECCENTRICITY": 0.0005881, "INCLINATION": 51.6294, "RA_OF_ASC_NODE": 163.229, "ARG_OF_PERICENTER": 187.8231, "MEAN_ANOMALY": 172.2667, "EPHEMERIS_TYPE": 0, "CLASSIFICATION_TYPE": "U", "NORAD_CAT_ID": 66910, "ELEMENT_SET_NO": 999, "REV_AT_EPOCH": 96, "BSTAR": 0.0011382516, "MEAN_MOTION_DOT": 0.00067606, "MEAN_MOTION_DDOT": 0}, "tle": {"line1": "1 66910U 98067XW  25342.53736869  .00067606  00000+0  11383-2 0  9997", "line2": "2 66910  51.6294 163.2290 0005881 187.8231 172.2667 15.51059789   962"}}, "geometry": {"type": "Point", "coordinates": [-0.8091566958062867, -21.04063814490836]}}, {"type": "Feature", "properties": {"norad_id": 66911, "name": "1998-067XX", "group": "last-30-days", "lat": -22.0482181787008, "lon": 0.15976029590583715, "alt_km": 412.48369787382126, "timestamp": "2025-12-08T21:31:03.448869+00:00", "meta": {"OBJECT_NAME": "1998-067XX", "OBJECT_ID": "1998-067XX", "EPOCH": "2025-12-08T12:53:30.248160", "MEAN_MOTION": 15.51182897, "ECCENTRICITY": 0.00057745, "INCLINATION": 51.6292, "RA_OF_ASC_NODE": 163.2276, "ARG_OF_PERICENTER": 188.5906, "MEAN_ANOMALY": 171.4985, "EPHEMERIS_TYPE": 0, "CLASSIFICATION_TYPE": "U", "NORAD_CAT_ID": 66911, "ELEMENT_SET_NO": 999, "REV_AT_EPOCH": 95, "BSTAR": 0.0013146958, "MEAN_MOTION_DOT": 0.00078611, "MEAN_MOTION_DDOT": 0}, "tle": {"line1": "1 66911U 98067XX  25342.53715565  .00078611  00000+0  13147-2 0  9996", "line2": "2 66911  51.6292 163.2276 0005774 188.5906 171.4985 15.51182897   953"}}, "geometry": {"type": "Point", "coordinates": [0.15976029590583715, -22.0482181787008]}}, {"type": "Feature", "properties": {"norad_id": 66912, "name": "1998-067XY", "group": "last-30-days", "lat": -13.564763803925658, "lon": -7.513371782906779, "alt_km": 413.9055366359671, "timestamp": "2025-12-08T21:31:03.448881+00:00", "meta": {"OBJECT_NAME": "1998-067XY", "OBJECT_ID": "1998-067XY", "EPOCH": "2025-12-08T12:56:10.446720", "MEAN_MOTION": 15.50562225, "ECCENTRICITY": 0.00050041, "INCLINATION": 51.6298, "RA_OF_ASC_NODE": 163.24, "ARG_OF_PERICENTER": 201.6566, "MEAN_ANOMALY": 158.4212, "EPHEMERIS_TYPE": 0, "CLASSIFICATION_TYPE": "U", "NORAD_CAT_ID": 66912, "ELEMENT_SET_NO": 999, "REV_AT_EPOCH": 95, "BSTAR": 0.00094066396, "MEAN_MOTION_DOT": 0.00054705, "MEAN_MOTION_DDOT": 0}, "tle": {"line1": "1 66912U 98067XY  25342.53900980  .00054705  00000+0  94066-3 0  9992", "line2": "2 66912  51.6298 163.2400 0005004 201.6566 158.4212 15.50562225   958"}}, "geometry": {"type": "Point", "coordinates": [-7.513371782906779, -13.564763803925658]}}]}